ONEWEB-0205             
1 48226U 21031S   25291.15932118 -.00000195  00000+0 -56011-3 0  9990
2 48226  87.9038 337.9055 0001951  93.4173 266.7180 13.14502653216474
ONEWEB-0206             
1 48227U 21031T   25291.20847666  .00000221  00000+0  56272-3 0  9997
2 48227  87.9049 337.8815 0001666 104.5813 255.5502 13.14503571216438
ONEWEB-0182             
1 48228U 21031U   25291.20373069  .00000277  00000+0  71373-3 0  9999
2 48228  87.9029 337.9220 0001799  91.6552 268.4784 13.14502678216646
ONEWEB-0186             
1 48229U 21031V   25291.13870950  .00000166  00000+0  41432-3 0  9993
2 48229  87.9051 337.9018 0001985  95.3792 264.7564 13.14502229216581
ONEWEB-0181             
1 48230U 21031W   25291.11651108  .00000239  00000+0  61021-3 0  9992
2 48230  87.9030 337.9701 0002064  98.6081 261.5282 13.14502785216438
ONEWEB-0188             
1 48231U 21031X   25291.15455512 -.00000164  00000+0 -47611-3 0  9996
2 48231  87.9029 337.9576 0001848  95.4493 264.6848 13.14503514216341
ONEWEB-0220             
1 48232U 21031Y   25291.19420155  .00000281  00000+0  72312-3 0  9990
2 48232  87.9044 337.8910 0002042  91.9491 268.1872 13.14504377216610
ONEWEB-0165             
1 48233U 21031Z   25291.14663817 -.00000007  00000+0 -52982-4 0  9990
2 48233  87.9029 337.9352 0002053  94.8747 265.2617 13.14503039216566
